{
  "norad_id": 68494,
  "name": "TRANSPORTER-16 OBJECT CG",
  "history": [
    {
      "epoch": "2026-04-15T20:55:05.439072Z",
      "apogee_km": 594.4576880559844,
      "perigee_km": 592.8332627392165,
      "latitude_deg": -4.3421246239276544e-05,
      "longitude_deg": -92.69779132382156,
      "height_km": 597.4989013352297,
      "semi_major_axis_km": 6971.7824753976,
      "eccentricity": 0.0001165,
      "inclination_deg": 97.7566,
      "raan_deg": 65.1023,
      "arg_perigee_deg": 181.3978,
      "mean_anomaly_deg": 178.7237,
      "mean_motion_rev_day": 14.91375552
    }
  ]
}