TRANSPORTER-16 OBJECT CG
1 68494U 26067CG  26105.87159073  .00002101  00000+0  21613-3 0  9995
2 68494  97.7566  65.1023 0001165 181.3978 178.7237 14.91375552  2436
